[{"OBJECT_NAME":"STARLINK-34569","OBJECT_ID":"2025-137S","EPOCH":"2026-03-09T21:35:26.222784","MEAN_MOTION":15.30240762,"ECCENTRICITY":9.505e-5,"INCLINATION":53.157,"RA_OF_ASC_NODE":334.5045,"ARG_OF_PERICENTER":47.2702,"MEAN_ANOMALY":312.8378,"EPHEMERIS_TYPE":0,"CLASSIFICATION_TYPE":"U","NORAD_CAT_ID":64610,"ELEMENT_SET_NO":999,"REV_AT_EPOCH":4076,"BSTAR":0.0010834416,"MEAN_MOTION_DOT":0.00031908,"MEAN_MOTION_DDOT":0},{"OBJECT_NAME":"CZ-2C DEB","OBJECT_ID":"2026-009C","EPOCH":"2026-03-09T19:20:16.840608","MEAN_MOTION":15.15876918,"ECCENTRICITY":0.01015815,"INCLINATION":97.2202,"RA_OF_ASC_NODE":140.8028,"ARG_OF_PERICENTER":36.3959,"MEAN_ANOMALY":324.4125,"EPHEMERIS_TYPE":0,"CLASSIFICATION_TYPE":"U","NORAD_CAT_ID":67586,"ELEMENT_SET_NO":999,"REV_AT_EPOCH":810,"BSTAR":0.0025681251,"MEAN_MOTION_DOT":0.0005635,"MEAN_MOTION_DDOT":0}]
